[{"OBJECT_NAME":"GPS BIIF-9","OBJECT_ID":"2015-013A","EPOCH":"2022-08-18T01:15:40.820256","MEAN_MOTION":2.00548679,"ECCENTRICITY":0.0069808,"INCLINATION":53.6667,"RA_OF_ASC_NODE":262.1424,"ARG_OF_PERICENTER":20.2192,"MEAN_ANOMALY":340.1086,"EPHEMERIS_TYPE":0,"CLASSIFICATION_TYPE":"U","NORAD_CAT_ID":40534,"ELEMENT_SET_NO":999,"REV_AT_EPOCH":5376,"BSTAR":0,"MEAN_MOTION_DOT":1.4e-7,"MEAN_MOTION_DDOT":0},{"OBJECT_NAME":"GSAT0203 (GALILEO 7)","OBJECT_ID":"2015-017A","EPOCH":"2022-08-18T05:02:34.941696","MEAN_MOTION":1.70476125,"ECCENTRICITY":0.0002355,"INCLINATION":56.8137,"RA_OF_ASC_NODE":19.684,"ARG_OF_PERICENTER":209.3877,"MEAN_ANOMALY":150.6011,"EPHEMERIS_TYPE":0,"CLASSIFICATION_TYPE":"U","NORAD_CAT_ID":40544,"ELEMENT_SET_NO":999,"REV_AT_EPOCH":4535,"BSTAR":0,"MEAN_MOTION_DOT":-9.2e-7,"MEAN_MOTION_DDOT":0},{"OBJECT_NAME":"GSAT0204 (GALILEO 8)","OBJECT_ID":"2015-017B","EPOCH":"2022-08-17T21:01:59.541312","MEAN_MOTION":1.70475738,"ECCENTRICITY":0.0002754,"INCLINATION":56.8204,"RA_OF_ASC_NODE":19.7058,"ARG_OF_PERICENTER":189.7325,"MEAN_ANOMALY":170.2637,"EPHEMERIS_TYPE":0,"CLASSIFICATION_TYPE":"U","NORAD_CAT_ID":40545,"ELEMENT_SET_NO":999,"REV_AT_EPOCH":839,"BSTAR":0,"MEAN_MOTION_DOT":-9.2e-7,"MEAN_MOTION_DDOT":0},{"OBJECT_NAME":"GPS BIIF-10","OBJECT_ID":"2015-033A","EPOCH":"2022-08-18T05:04:27.558048","MEAN_MOTION":2.00575173,"ECCENTRICITY":0.0073881,"INCLINATION":55.1503,"RA_OF_ASC_NODE":324.1924,"ARG_OF_PERICENTER":7.8091,"MEAN_ANOMALY":352.3429,"EPHEMERIS_TYPE":0,"CLASSIFICATION_TYPE":"U","NORAD_CAT_ID":40730,"ELEMENT_SET_NO":999,"REV_AT_EPOCH":5193,"BSTAR":0,"MEAN_MOTION_DOT":-1.0e-6,"MEAN_MOTION_DDOT":0},{"OBJECT_NAME":"METEOSAT-11 (MSG-4)","OBJECT_ID":"2015-034A","EPOCH":"2022-08-18T06:46:15.510144","MEAN_MOTION":1.00268023,"ECCENTRICITY":0.0001288,"INCLINATION":0.4145,"RA_OF_ASC_NODE":68.4663,"ARG_OF_PERICENTER":34.241,"MEAN_ANOMALY":325.1857,"EPHEMERIS_TYPE":0,"CLASSIFICATION_TYPE":"U","NORAD_CAT_ID":40732,"ELEMENT_SET_NO":999,"REV_AT_EPOCH":2599,"BSTAR":0,"MEAN_MOTION_DOT":-1.5e-7,"MEAN_MOTION_DDOT":0},{"OBJECT_NAME":"GSAT0205 (GALILEO 9)","OBJECT_ID":"2015-045A","EPOCH":"2022-08-17T15:26:48.290208","MEAN_MOTION":1.70473629,"ECCENTRICITY":0.0003416,"INCLINATION":55.5853,"RA_OF_ASC_NODE":260.2723,"ARG_OF_PERICENTER":348.0467,"MEAN_ANOMALY":11.9983,"EPHEMERIS_TYPE":0,"CLASSIFICATION_TYPE":"U","NORAD_CAT_ID":40889,"ELEMENT_SET_NO":999,"REV_AT_EPOCH":4315,"BSTAR":0,"MEAN_MOTION_DOT":2.5e-7,"MEAN_MOTION_DDOT":0},{"OBJECT_NAME":"GSAT0206 (GALILEO 10)","OBJECT_ID":"2015-045B","EPOCH":"2022-08-18T10:49:24.008448","MEAN_MOTION":1.70473618,"ECCENTRICITY":0.0002649,"INCLINATION":55.5837,"RA_OF_ASC_NODE":260.2459,"ARG_OF_PERICENTER":315.4949,"MEAN_ANOMALY":44.538,"EPHEMERIS_TYPE":0,"CLASSIFICATION_TYPE":"U","NORAD_CAT_ID":40890,"ELEMENT_SET_NO":999,"REV_AT_EPOCH":4319,"BSTAR":0,"MEAN_MOTION_DOT":3.0e-7,"MEAN_MOTION_DDOT":0},{"OBJECT_NAME":"GPS BIIF-11","OBJECT_ID":"2015-062A","EPOCH":"2022-08-18T06:12:09.324000","MEAN_MOTION":2.00562765,"ECCENTRICITY":0.0079341,"INCLINATION":55.8493,"RA_OF_ASC_NODE":85.3376,"ARG_OF_PERICENTER":217.4368,"MEAN_ANOMALY":142.0779,"EPHEMERIS_TYPE":0,"CLASSIFICATION_TYPE":"U","NORAD_CAT_ID":41019,"ELEMENT_SET_NO":999,"REV_AT_EPOCH":4977,"BSTAR":0,"MEAN_MOTION_DOT":-5.5e-7,"MEAN_MOTION_DDOT":0},{"OBJECT_NAME":"ELEKTRO-L 2","OBJECT_ID":"2015-074A","EPOCH":"2022-08-18T08:25:34.991616","MEAN_MOTION":1.0027155,"ECCENTRICITY":0.0002418,"INCLINATION":3.1395,"RA_OF_ASC_NODE":87.4322,"ARG_OF_PERICENTER":76.7849,"MEAN_ANOMALY":274.3997,"EPHEMERIS_TYPE":0,"CLASSIFICATION_TYPE":"U","NORAD_CAT_ID":41105,"ELEMENT_SET_NO":999,"REV_AT_EPOCH":2448,"BSTAR":0,"MEAN_MOTION_DOT":-1.25e-6,"MEAN_MOTION_DDOT":0},{"OBJECT_NAME":"GSAT0209 (GALILEO 12)","OBJECT_ID":"2015-079A","EPOCH":"2022-08-18T00:55:32.663136","MEAN_MOTION":1.70474004,"ECCENTRICITY":0.0003844,"INCLINATION":55.1695,"RA_OF_ASC_NODE":139.7103,"ARG_OF_PERICENTER":319.8878,"MEAN_ANOMALY":40.1122,"EPHEMERIS_TYPE":0,"CLASSIFICATION_TYPE":"U","NORAD_CAT_ID":41174,"ELEMENT_SET_NO":999,"REV_AT_EPOCH":4092,"BSTAR":0,"MEAN_MOTION_DOT":-2.6e-7,"MEAN_MOTION_DDOT":0},{"OBJECT_NAME":"GSAT0208 (GALILEO 11)","OBJECT_ID":"2015-079B","EPOCH":"2022-08-17T02:02:13.601760","MEAN_MOTION":1.70473953,"ECCENTRICITY":0.0003146,"INCLINATION":55.1676,"RA_OF_ASC_NODE":139.735,"ARG_OF_PERICENTER":320.8757,"MEAN_ANOMALY":39.1308,"EPHEMERIS_TYPE":0,"CLASSIFICATION_TYPE":"U","NORAD_CAT_ID":41175,"ELEMENT_SET_NO":999,"REV_AT_EPOCH":4132,"BSTAR":0,"MEAN_MOTION_DOT":-2.1e-7,"MEAN_MOTION_DDOT":0},{"OBJECT_NAME":"GPS BIIF-12","OBJECT_ID":"2016-007A","EPOCH":"2022-08-17T20:22:18.791904","MEAN_MOTION":2.00567948,"ECCENTRICITY":0.0062395,"INCLINATION":54.9192,"RA_OF_ASC_NODE":145.0402,"ARG_OF_PERICENTER":230.412,"MEAN_ANOMALY":129.0579,"EPHEMERIS_TYPE":0,"CLASSIFICATION_TYPE":"U","NORAD_CAT_ID":41328,"ELEMENT_SET_NO":999,"REV_AT_EPOCH":4777,"BSTAR":0,"MEAN_MOTION_DOT":-1.7e-7,"MEAN_MOTION_DDOT":0},{"OBJECT_NAME":"GSAT0211 (GALILEO 14)","OBJECT_ID":"2016-030A","EPOCH":"2022-08-17T18:58:29.269920","MEAN_MOTION":1.70475145,"ECCENTRICITY":0.0004736,"INCLINATION":55.7326,"RA_OF_ASC_NODE":260.2038,"ARG_OF_PERICENTER":298.8427,"MEAN_ANOMALY":61.163,"EPHEMERIS_TYPE":0,"CLASSIFICATION_TYPE":"U","NORAD_CAT_ID":41549,"ELEMENT_SET_NO":999,"REV_AT_EPOCH":3881,"BSTAR":0,"MEAN_MOTION_DOT":2.6e-7,"MEAN_MOTION_DDOT":0},{"OBJECT_NAME":"GSAT0210 (GALILEO 13)","OBJECT_ID":"2016-030B","EPOCH":"2022-08-16T07:45:48.354048","MEAN_MOTION":1.70475188,"ECCENTRICITY":0.0004459,"INCLINATION":55.7308,"RA_OF_ASC_NODE":260.2455,"ARG_OF_PERICENTER":272.6487,"MEAN_ANOMALY":87.3547,"EPHEMERIS_TYPE":0,"CLASSIFICATION_TYPE":"U","NORAD_CAT_ID":41550,"ELEMENT_SET_NO":999,"REV_AT_EPOCH":3878,"BSTAR":0,"MEAN_MOTION_DOT":1.9e-7,"MEAN_MOTION_DDOT":0},{"OBJECT_NAME":"INSAT-3DR","OBJECT_ID":"2016-054A","EPOCH":"2022-08-18T12:17:33.095904","MEAN_MOTION":1.00271921,"ECCENTRICITY":0.0011212,"INCLINATION":0.0615,"RA_OF_ASC_NODE":97.2328,"ARG_OF_PERICENTER":166.5164,"MEAN_ANOMALY":321.4897,"EPHEMERIS_TYPE":0,"CLASSIFICATION_TYPE":"U","NORAD_CAT_ID":41752,"ELEMENT_SET_NO":999,"REV_AT_EPOCH":2179,"BSTAR":0,"MEAN_MOTION_DOT":-8.5e-7,"MEAN_MOTION_DDOT":0},{"OBJECT_NAME":"GSAT0207 (GALILEO 15)","OBJECT_ID":"2016-069A","EPOCH":"2022-08-15T23:39:26.194176","MEAN_MOTION":1.70472584,"ECCENTRICITY":0.0003873,"INCLINATION":54.8299,"RA_OF_ASC_NODE":139.9332,"ARG_OF_PERICENTER":303.6959,"MEAN_ANOMALY":56.2953,"EPHEMERIS_TYPE":0,"CLASSIFICATION_TYPE":"U","NORAD_CAT_ID":41859,"ELEMENT_SET_NO":999,"REV_AT_EPOCH":3551,"BSTAR":0,"MEAN_MOTION_DOT":-1.6e-7,"MEAN_MOTION_DDOT":0},{"OBJECT_NAME":"GSAT0212 (GALILEO 16)","OBJECT_ID":"2016-069B","EPOCH":"2022-08-14T01:54:16.801632","MEAN_MOTION":1.70472577,"ECCENTRICITY":0.0002686,"INCLINATION":54.8268,"RA_OF_ASC_NODE":139.9836,"ARG_OF_PERICENTER":340.7511,"MEAN_ANOMALY":19.2596,"EPHEMERIS_TYPE":0,"CLASSIFICATION_TYPE":"U","NORAD_CAT_ID":41860,"ELEMENT_SET_NO":999,"REV_AT_EPOCH":3573,"BSTAR":0,"MEAN_MOTION_DOT":-1.3e-7,"MEAN_MOTION_DDOT":0}]