NAVSTAR 73 (USA 260)    
1 40534U 15013A   22230.05255579  .00000014  00000+0  00000+0 0  9996
2 40534  53.6667 262.1424 0069808  20.2192 340.1086  2.00548679 53763
GSAT0203 (GALILEO 7)    
1 40544U 15017A   22230.21012664 -.00000092  00000+0  00000+0 0  9992
2 40544  56.8137  19.6840 0002355 209.3877 150.6011  1.70476125 45352
GSAT0204 (GALILEO 8)    
1 40545U 15017B   22229.87638358 -.00000092  00000+0  00000+0 0  9997
2 40545  56.8204  19.7058 0002754 189.7325 170.2637  1.70475738  8396
NAVSTAR 74 (USA 262)    
1 40730U 15033A   22230.21143007 -.00000100  00000+0  00000+0 0  9993
2 40730  55.1503 324.1924 0073881   7.8091 352.3429  2.00575173 51938
METEOSAT-11 (MSG-4)     
1 40732U 15034A   22230.28212396 -.00000015  00000+0  00000+0 0  9996
2 40732   0.4145  68.4663 0001288  34.2410 325.1857  1.00268023 25996
GSAT0205 (GALILEO 9)    
1 40889U 15045A   22229.64361447  .00000025  00000+0  00000+0 0  9991
2 40889  55.5853 260.2723 0003416 348.0467  11.9983  1.70473629 43153
GSAT0206 (GALILEO 10)   
1 40890U 15045B   22230.45097232  .00000030  00000+0  00000+0 0  9998
2 40890  55.5837 260.2459 0002649 315.4949  44.5380  1.70473618 43198
NAVSTAR 75 (USA 265)    
1 41019U 15062A   22230.25844125 -.00000055  00000+0  00000+0 0  9998
2 41019  55.8493  85.3376 0079341 217.4368 142.0779  2.00562765 49778
ELEKTRO-L 2             
1 41105U 15074A   22230.35109944 -.00000125  00000+0  00000+0 0  9999
2 41105   3.1395  87.4322 0002418  76.7849 274.3997  1.00271550 24486
GSAT0209 (GALILEO 12)   
1 41174U 15079A   22230.03857249 -.00000026  00000+0  00000+0 0  9993
2 41174  55.1695 139.7103 0003844 319.8878  40.1122  1.70474004 40929
GSAT0208 (GALILEO 11)   
1 41175U 15079B   22229.08487965 -.00000021  00000+0  00000+0 0  9996
2 41175  55.1676 139.7350 0003146 320.8757  39.1308  1.70473953 41327
NAVSTAR 76 (USA 266)    
1 41328U 16007A   22229.84882861 -.00000017  00000+0  00000+0 0  9991
2 41328  54.9192 145.0402 0062395 230.4120 129.0579  2.00567948 47772
GSAT0211 (GALILEO 14)   
1 41549U 16030A   22229.79061655  .00000026  00000+0  00000+0 0  9995
2 41549  55.7326 260.2038 0004736 298.8427  61.1630  1.70475145 38815
GSAT0210 (GALILEO 13)   
1 41550U 16030B   22228.32347632  .00000019  00000+0  00000+0 0  9999
2 41550  55.7308 260.2455 0004459 272.6487  87.3547  1.70475188 38788
INSAT-3DR               
1 41752U 16054A   22230.51218861 -.00000085  00000+0  00000+0 0  9998
2 41752   0.0615  97.2328 0011212 166.5164 321.4897  1.00271921 21796
GSAT0207 (GALILEO 15)   
1 41859U 16069A   22227.98571984 -.00000016  00000+0  00000+0 0  9991
2 41859  54.8299 139.9332 0003873 303.6959  56.2953  1.70472584 35514
GSAT0212 (GALILEO 16)   
1 41860U 16069B   22226.07936113 -.00000013  00000+0  00000+0 0  9998
2 41860  54.8268 139.9836 0002686 340.7511  19.2596  1.70472577 35736
